[{"OBJECT_NAME":"ITAMSAT (IO-26)","OBJECT_ID":"1993-061D","EPOCH":"2026-03-09T18:51:40.558176","MEAN_MOTION":14.31337175,"ECCENTRICITY":0.00091856,"INCLINATION":98.6929,"RA_OF_ASC_NODE":136.1036,"ARG_OF_PERICENTER":22.8845,"MEAN_ANOMALY":337.2746,"EPHEMERIS_TYPE":0,"CLASSIFICATION_TYPE":"U","NORAD_CAT_ID":22826,"ELEMENT_SET_NO":999,"REV_AT_EPOCH":69309,"BSTAR":7.3937292e-5,"MEAN_MOTION_DOT":1.51e-6,"MEAN_MOTION_DDOT":0},{"OBJECT_NAME":"THORAD AGENA D DEB","OBJECT_ID":"1969-082GN","EPOCH":"2026-03-09T19:03:10.100160","MEAN_MOTION":14.35044006,"ECCENTRICITY":0.00342328,"INCLINATION":69.9872,"RA_OF_ASC_NODE":59.5463,"ARG_OF_PERICENTER":336.6861,"MEAN_ANOMALY":23.2711,"EPHEMERIS_TYPE":0,"CLASSIFICATION_TYPE":"U","NORAD_CAT_ID":4547,"ELEMENT_SET_NO":999,"REV_AT_EPOCH":91775,"BSTAR":0.00062557124,"MEAN_MOTION_DOT":1.738e-5,"MEAN_MOTION_DDOT":0}]
